Exporter Name,Address,District,State
2M INDUSTRIAL ENTERPRISES LLP,,,
A & B TOOLLERS,,,
A HANDICRAFTS,,,
A ONE BUSINESS,,,
A PLUS B INDUSTRIES,,,
A-1 CHIPS AND EXPORTS(I)P.LTD.,,,
A. TOSH & SONS (I) LTD.,,,
A.1ENTERPRISES,,,
A.A.&N EXPORTS,,,
A.A.SNACK,,,
A.B.C. GARMENTS,,,
A.B.MARINE  INTERNATIONAL,,,
A.C.N. TEXTILES P. LTD.,,,
A.G.R.APPARELS,,,
A.K.M CASHEWS,,,
A.K.M.SULAIMAN,,,
A.K.TRADING,,,
A.M. INDUSTRIES,,,
A.M.K.EXPORTS,,,
A.M.MOHAMMED USMAN & BROS.,,,
A.M.POWER CORD CORPN.,,,
A.N.FOUNDRY,,,
A.N.S.,,,
A.R.INDUSTRIES,,,
A.R.J.EXPORTS,,,
A.R.K.TEX,,,
A.S.MARINE INDUSTRIES P.LTD.,,,
A.S.P. & SON ENTERPRISES P.LTD.,,,
A.T.R. BAKERS&FOOD PRODUCTS,,,
A.V.FASHION,,,
AADHI EXPORTS,,,
AARON AGENCIES,,,
AARONS,,,
AB MAURI INDIA P.LTD.,,,
ABAD EXIM P. LTD.,,,
ABB LTD.,,,
ABC GARMENTS,,,
ABC INTERNATIONAL,,,
ABI SOURCING,,,
ABISHA EXPORTS,,,
ABLA IMPEX P.LTD.,,,
ABN TRADERS,,,
ABUFAIZAL EXPORTS,,,
ACCURATE SYSTEMS,,,
ACHAL CASHEWS P. LTD.,,,
ACME CLOTHING,,,
ACTUAL TRADERS,,,
ADANI FOOD PRODUCTS,,,
ADARSH KNITWEAR P.LTD.,,,
ADD PRINT(INDIA)ENTERPRISES P.LTD.,,,
ADHINATH TEXTILES MILLS,,,
ADHIRA EXPORTS,,,
ADHUVIKHA EXPORTS,,,
ADITYA BIRLA BUVO LTD.,,,
ADITYA TRADING CO.,,,
ADONIS MARKETING,,,
ADVANCE FINE MATERIALS,,,
ADVENT FOUNDRY & ALLIED SUPPLIES P.LTD.,,,
ADVENT FOUNDRY&ALLIED SUPPLES P.LTD.,,,
ADVENT STONE CALIBARATION P.LTD.,,,
ADVIN INTERNATIONAL,,,
AERATH BUSINESS CORPORATION,,,
AFEEF CASHEW,,,
AFH INTERNATIONAL TRADING  P.LTD.,,,
AGARMET INTERNATIONAL,,,
AGASH PLAST INDIA,,,
AGATHY KNIT,,,
AGI APPARELS,,,
AGRO ENGINEERING&MACHINERIES,,,
AGRO PRODUCTS & AGENCIES,,,
AHEAD IMPEX,,,
AIR CARE ENGINEERING TECHNOLOGIES,,,
AIRLINES EXPORTS,,,
AISWARYA CASHEW COMPANY,,,
AJMI FLOUR MILL(I)P.LTD.,,,
AJWA EXPORTING CO.,,,
AKAY SPICES P.LTD.,,,
AKG INDIA P.LTD.,,,
AKSHAYA TEXTILE,,,
AL AHLI EXPORTERS,,,
AL BADRA SEAFOODS P.LTD.,,,
AL BARAKHA EXPORTS,,,
AL GLOBAL STAR,,,
AL HAR INTERNATIONAL,,,
AL KHATBI EXPORTS,,,
AL SAFEER EXPORTS,,,
AL-AMEEN EXPORTERS,,,
AL-AZIZ & COMPANY,,,
AL-GAYATHRI TRADING CO. P. LTD.,,,
AL-MELA MARKETING P.LTD.,,,
AL-NARZ RUBBERS,,,
ALAGAR APPARELS,,,
ALEPHA ENTERPRISES,,,
ALFFA PLASTICS,,,
ALGA INTERNATIONAL,,,
ALIES ESSENTIAL TRADING,,,
ALIF ENTERPRISES,,,
ALIF PACKS,,,
ALIFF EXIM,,,
ALIN CASHEW TRADERS,,,
ALINA AV ENTERPRISES,,,
ALIYA  CASHEW EXPORTS,,,
ALLANASONS LTD.,,,
ALLIED CASHEW INDUSTRIES,,,
ALLKOSHYS ALLSPICES,,,
ALOK INDUSTRIES,,,
ALPHA ENTERPRISES,,,
ALPHA INTERNATIONAL,,,
ALPHACRAFT P.LTD.,,,
ALPIN KNITS,,,
ALSTOM INSTRUMENT TRANSFORMER,,,
ALSTOM TRANSPORT,,,
ALUMINIUM INDUSTRIES LTD.,,,
AM SQUARE TRADE LINKS,,,
AMACO IMPEX P.LTD.,,,
AMAIN APPARELS INDIA P.LTD.,,,
AMALGAM NUTRIENTS & FEEDS LTD.,,,
AMANATH ARAFATH APPARELS,,,
AMANCO FIRE & SAFETY,,,
AMAR SINGH CHAWAL WALA,,,
AMBADI ENTERPRISES LTD.,,,
AMBAL CREATIONS,,,
AMBARAM TEMPLE CONSTRUCTIONS ,,,
AMBER INTERNATIONAL TRADING,,,
AMBICO INTEGRATED MARKETING,,,
AMBO EXPORTS  LTD.,,,
AMES FOODS PROCESSORS INDIA P.LTD.,,,
AMMA WOODS P.LTD.,,,
AMRITA ENTERPRISES LTD.,,,
ANAND INTERNATIONAL,,,
ANAND TEX KNIT,,,
ANANKE INDIA P.LTD.,,,
ANGELA COIR MILLS,,,
ANIL CASHEWS,,,
ANITA EXPORTS,,,
ANJANA EXPORTS,,,
ANN IMPEX HOUSE OF SPICES,,,
ANNA ALUMINIUM  COMPANY P.LTD.,,,
ANNA MALAI EXIM,,,
ANNAI SURAKSHA AGRO & COCONUT EXPORTS,,,
ANNS FLOOR DECORATION,,,
ANSWER MARK EXPORTS&IMPORTS P.LTD.,,,
ANTICHEM EQUIPMENT,,,
ANTON EXPORTS&IMPORTS,,,
ANU CASHEWS,,,
APAGU TRADING,,,
APEX FASHION,,,
APEX MSTCH CONSORTIUM INDIA P.LTD.,,,
APEX RUBBER,,,
APOLLO TYRES LTD.,,,
APPAREL WORLD,,,
AQUA CARE SYSTEMS,,,
AQUA MARINE EXPORTS,,,
AQUASTAR MARINE FOODS,,,
AQUASUB ENGINEERING,,,
AQUATIC FISHERIES,,,
ARA MATS INTERNATIONAL,,,
ARANYA AYURVEDA VAIDYA,,,
ARASAN BUSINESS COMBINES P.LTD.,,,
ARASCO FRUIT PRODUCTS,,,
ARC COIR YARN TRADING CO.,,,
ARIANE TOOLS & COMPONENTS,,,
ARICIA INDIA INTERNATIONAL P.LTD.,,,
ARIKKAT EXPORTS,,,
ARJUNA NATURAL P.LTD.,,,
ARK GREASE AND LUBES,,,
ARKAY EXPORTS,,,
ARNO FASHION,,,
AROMA HORTICULTURE,,,
AROMATIC  INGREDIENTS P.LTD.,,,
ARROW SOLUTIONS,,,
ARROW TEX,,,
ARS COMPACTERS,,,
ARUN REGA BAKERY  MACHINERIES P.LTD.,,,
ARVIND  LIFESTYLE BRANDS LTD.,,,
ARVIND GOOD HILL,,,
ARVIND LTD.,,,
ARYA EXPORTS,,,
ARYA WOODS,,,
ARYABHANGY,,,
ARYAS EXPORTS & IMPORTS,,,
ASHER HOME FASHION,,,
ASHIQUE CHEMICALS&COSMETICS,,,
ASHOK TRADE LINKS,,,
ASHOKA FASHION HANDLOOMS,,,
ASHRO TEXTILES PVT.LTD,,,
ASHTANGA VAIDYAM AYURVEDICS,,,
ASHWIN SPICES,,,
ASIA FOODS,,,
ASIAN FRESH,,,
ASIAN OLEORESIN COMPANY,,,
ASIAN SPICES,,,
ASIAN TEA  EXPORTS LTD.,,,
ASIANN COIR PRODUCTS,,,
ASSOCIATE POLYMERS,,,
ASSOCIATED CASHEW INDUSTRIES,,,
ASSOCIATED RUBBER CHEMICALS P.LTD.,,,
ASW EXPORTS,,,
ASWATH  CREATIONS,,,
ASWATH KNIT GARMENTS,,,
AT & S INDIA,,,
AT HOME INDIA PVT LTD,,,
ATC  TYRES P.LTD.,,,
ATHAVAN APPARELS,,,
ATHEENA EXPORTS,,,
ATIRA DESIGNS P.LTD.,,,
ATLANTIC FABRICS,,,
ATLANTIC FOODS INDIA P.LTD.,,,
ATLAS EXPORTERS,,,
ATLAS STATIONERY INDIA PVT LTD,,,
ATS ELGI LTD.,,,
ATTIRE INCORPORATED,,,
AURRUM ENTERPRISES(P)LTD.,,,
AUSIN GLOBAL TRADERS,,,
AUSTIN PARFETT ENGINEERING PVT LTD.,,,
AUTHENTIC EXPORTS,,,
AUTOFIT CAR INTERIORS P.LTD.,,,
AVA CONDIMENTS LLP,,,
AVEES FOODS,,,
AVIROMIC EXIM,,,
AVT MCCORMICK INGREDIENTS LTD.,,,
AVT NATURAL PRODUCTS LTD.,,,
AXIS ENGINEERING INDIA P.LTD.,,,
AXIS INTERNATIONAL,,,
AY TEE CEE FOOTCARE,,,
AYSHA CASHEW ,,,
AYSHA HOSIERY FACTORY P. LTD.,,,
AYURFERT,,,
AYUSH JYOTHI PANCHAKARMA EQUIPMENTS,,,
AZMI GARMENTS,,,
AZZAEEM FOOD PRODUCTS P.LTD.,,,
B.K.S. TEXTILES PRIVATE LTD,,,
B.S. INNOVATIONS,,,
B.S.TEX,,,
BABATHING INDIA,,,
BABY MARINE EXPORTS,,,
BABY MARINE FOODS,,,
BABY MARINE PRODUCTS,,,
BAGAVATHI KNIT GARMENTS,,,
BAGAVATHY EXPORTS,,,
BAJAJ ENTERPRISES,,,
BAJRANG IMPORT & EXPORTS,,,
BALAJI ENTERPRISES,,,
BALAJI OVERSEAS,,,
BALAJI RENGANATHAN,,,
BALAXI OVERSEAS P.LTD.,,,
BAMS CONDIMENTS IMPEX (P) LTD.,,,
BARAKATH GARMENTS(INDIA)P.LTD.,,,
BARAMY EXPORTS,,,
BARKLAY ALLIANZ,,,
BARRAQ TRADING,,,
BASF INDIA LTD.,,,
BAUMWOLLE CLOGTHING CO.,,,
BAWA FISH MEAL & OIL CO.,,,
BAY PRINCE EXPORTS,,,
BCN TEX  P.LTD.,,,
BEACH SAND MINERALS,,,
BEENA CASHEW CO.,,,
BEFFY CASHEW CO.,,,
BEST CORPORATION LTD.,,,
BEST ENGINEERING COMPANY,,,
BESTOW INTERNATIONAL,,,
BETA HEALTH CARE PRODUCTS P.LTD.,,,
BETHEL CASHEW COMPANY,,,
BHANSALI & CO.,,,
BHARAT FRITZ WERNER LTD.,,,
BHARAT PETROLEUM CORPN.LTD.,,,
BHARATH SEAFOODS,,,
BHARATH VAIDYASALA,,,
BHARATIYA SEWA TRUST,,,
BHARTIYA INTERNATIONAL LTD.,,,
BHAVANI MENON GARMENTS,,,
BHOOMI NATURAL PRODUCTS & EXPORTS ,,,
BHUVANESWARY AYURVEDICS,,,
BI-ZONE EXPORTS,,,
BIESSE MANUFACTURING CO.,,,
BIG BAG INTERNATIONAL P. LTD.,,,
BIOTECH RENEWABLE ENERGY,,,
BLACK BULL TEXTILES,,,
BLISS GVS PHARMA LTD.,,,
BLOOM WORLD,,,
BLOSSOM SHOWER AGRO EXPORTS (P)LTD.,,,
BLT MARINE P.LTD.,,,
BLUE EYES TRADING IMPORT&EXPORT,,,
BLUE FINE FOODS,,,
BLUE LEAF TRADING COMPANY,,,
BLUE PRINT SOLUTIONS PVT LTD.,,,
BLUE SEA (INDIA) EXPORTS,,,
BLUE SEAS EXIM,,,
BLUE STAR EXPORTS,,,
BLUE WATER FOODS & EXPORTS P. LTD.,,,
BLUECREST FROZEN FOODS P.LTD.,,,
BNS EXPORTS,,,
BODYGEAR INTERNATIONAL(P)LTD.,,,
BOMBAY BURMAH TRADING CORPN.,,,
BOMBAY RAYON FASHIONS LTD.,,,
BOMMIDALA ENTERPRISES P.LTD.,,,
BONNEFOI TRADING,,,
BOYZONE FOOTCARE INDIA,,,
BOYZONE POLYMERS,,,
BPL MEDICAL TECHNOLOGIES,,,
BRAHMINS FOOD INDIA P.LTD.,,,
BREMELS RUBBER INDUSTRIES P. LTD.,,,
BRIGHT AGROTECH,,,
BRIGHT STAR GLOBAL TRADING,,,
BRIGHT TYRE MOULDS&ENGINEERINGS WORKS,,,
BRIZO GLOBAL LOGISTICS PVT LTD.,,,
BROTHERS COIR MILLS,,,
BTI COPPERMATICS INDIA P.LTD.,,,
BUILDMET FIBRE P.LTD.,,,
BURAAK WORLD TRADERS,,,
C SQUARE INTL PVT LTD,,,
"C&A FARM FRESH P,.LTD.",,,
C.2.C. FOODS,,,
C.JACOB & CO.,,,
C.M.C.EXPORTERS,,,
C.MOSE,,,
C.O.T.EXPORTS&IMPORTS,,,
C.R.EXPORTING & IMPORTING COMPANY,,,
C.R.I.PUMPS P.LTD.,,,
C.SWAMINATHA MUDILIAR,,,
CABOT SANMAR LTD.,,,
CAMILLA STEEL PLANTERS,,,
CANNAN MARINE PRODUCTS,,,
CAP SEAFOODS P.LTD.,,,
CAPITAL CLOTHING CO.,,,
CAPITAL KING ROLLER,,,
CAPITAL KNITS,,,
CAPITHAN AGENCIES,,,
CAPITHAN EXPORTING CO.,,,
CARBORUNDUM UNIVERSAL LTD.,,,
CARE ONN TRAING,,,
CARILLON MEDIA,,,
CARLOO TEXTILE,,,
CARMEL CASHEWS,,,
CARROTS CORPORATION,,,
CASUAL CLOTHING COMPANY,,,
CEANBLAST EQUIPMENT INDIA,,,
CEEAY FRAGRANCES,,,
CEEDEE METALLOYS P.LTD.,,,
CEEKAY GLOBAL TRADING,,,
CEEKAY SPECIALITY CHEMICALS,,,
CENTURY APPARELS P. LTD.,,,
CENTURY PLYWOOD,,,
CERES EXPORTERS,,,
CESARE BONETTI INDIA,,,
CEYENAR CHEMICALS P.LTD.,,,
CHAITHANYA CASHEW COMPANY,,,
CHAMAKALAYIL TRADERS,,,
CHAMAKKAT HERBAL PRODUCT,,,
CHANGOER TRADING & EXPORTS P.LTD.,,,
CHASS ENGINEERING,,,
CHAWLA EXPORTS,,,
CHEERAKUZHU AGRO DEVELOPERS P.LTD.,,,
CHEMISE INDUS P.LTD.,,,
CHEMMARATHIL CASHEW CO.,,,
CHETHANA DRUGS & CHEMICALS,,,
CHINKU SWEETS,,,
CHIRACKAL AGRO MILLS,,,
CHIRACKAL FOOD PRODUCTS,,,
CHOICE CASHEW INDUSTRIES,,,
CHOICE TRADING CORPN. LTD.,,,
CHOLAYIL PVT LTD.,,,
CHOTHY ENTERPRISES,,,
CHRIS COTTON,,,
CHROMETAN EXPORTS P.LTD.,,,
CIHANBLAST EQUIPMENT,,,
CISAN BLAST EQUIPMENT,,,
CLASSIC,,,
CLASSIC ENTERPRISES,,,
CLASSIC FLOOR FURNISHINGS,,,
CLASSIC HOME FURNISHING P. LTD.,,,
CLASSIC SPICES P.LTD.,,,
CLEANBLAST EQUIPMENT,,,
CLIFTON EXPORT,,,
CML BIOTECH P.LTD.,,,
COASTAL ENTERPRISES,,,
COC INTERNATIONAL TRADERS,,,
COCOMATS INTERNATIONAL,,,
COCONA IMPEX,,,
COCONUT PRODUCT IMPEX,,,
COCOSHOPE,,,
COCOTERO,,,
COCOTEX,,,
COINS FOODS & SPICES (P) LTD.,,,
COIR ART,,,
COIR HOME,,,
COIR TEX INTERNATIONAL,,,
COIR TUFT INTERNATIONAL P.LTD.,,,
COIRDEC INTERNATIONAL,,,
COIRTEX-INDIA,,,
COLONIALISTS LANDMARK COSMETICS INDIAN PVT LTD.,,,
COLORLINES CLOTHING,,,
COLOUR PLANT GARMENTS,,,
CONCORD POLYMERS,,,
CONNECTIVITY INDIA P.LTD.,,,
CONNISSEUR FASHION,,,
CONSOLIDATED TEA CORPORATION,,,
CONTINENTAL TRADES & AGENCIES,,,
COOLMATE REFERIGERATION,,,
COSMO ELECTRICAL AGENCIES,,,
COTSFAB EXPORTS,,,
COTTAGE EXPO CRAFTS,,,
COTTON ASIA TEXTILE INDUSTRIES,,,
COTTON BASE,,,
COTTON BLOSSOM,,,
COTTON COTTAGE,,,
COTTONS,,,
CPC LTD.,,,
CRAFT INDIA INC.,,,
CRAFTERS,,,
CRAFTSMAN AUTOMATION P. LTD.,,,
CRAIGMORE PLANTATIONS (INDIA) LTD.,,,
CREATIVE TRADE LINKS,,,
CREATIVE WARDROBES(I)P.LTD.,,,
CRESCENT POLYMERS (P)LTD.,,,
CRESCENT SEAFOOD P.LTD.,,,
CRESCO ENTERPRISES P.LTD.,,,
CROUWN KNITWEAR,,,
CRUST N CRUMB FOODINGRE P.LTD.,,,
CURRENT BOOKS P.LTD.,,,
CYGNUS CONVERJENCE P.LTD.,,,
D.C.BOOKS,,,
D.P. INTERNATIONAL EXIM,,,
DABUR INDIA LTD.,,,
DAFAB EXPORTS P.LTD.,,,
DAILY EXPORTS,,,
DAKSH EXIM SOLUTIONS P.LTD.,,,
DAMA BOOKS,,,
DAMODHAR INDUSTRIES,,,
DANISH INTL,,,
DAR INTERNATIONAL,,,
DD EXPORTS,,,
DEAL BRUNCH,,,
DEAL WELL,,,
DEBURGE INTERNATIOAL,,,
DECOR MATS P.LTD.,,,
DECOTECH INNOVATIONS,,,
DEECEE INTERNATIONAL TRADING CORPN.,,,
DEEPAK HOSIERY MILLS,,,
DEEPAM BAG INDUSTRIES,,,
"DEFAB EXPORTS P,LTD.",,,
DEJAI KNIT GARMENTS,,,
DELICIOUS CASHEWS,,,
DELISH CASHEW INDUSTRIES,,,
DELPHI CONNECTION SYSTEMS INDIA LTD.,,,
DELUXE KNITTING MILLS,,,
DEO DAT,,,
DESIGN & INTERIORS,,,
DESIGN FOOTCARE,,,
DESNAT ENLT WEARS,,,
DETLISH RUGS,,,
DEVANSHI EXPORTS P.LTD.,,,
DHANWANTHRY OUSHADASALA,,,
DHATHRI AYURVEDA P.LTD.,,,
DHRONI AYURVEDA,,,
DIADORA SHOES P.LTD,,,
DIAMOND FOOD PRODUCTS,,,
DIAMOND PLYWOOD,,,
DIAMOND ROLLER FLOUR MILLS P.LTD.,,,
DICKEY EXPORTS,,,
DIFFERENT SHADES,,,
DIGNITY INNOVATION,,,
DILEEP INDUSTRIES,,,
DIMESCO FOOTCARE P.LTD.,,,
DINERS FOOD INC.,,,
DINERS FOOD PRODUCTS P.LTD,,,
DINESH TEXTILES,,,
DISHA CORPORATE,,,
DIVINE ATMOS PVT LTD,,,
DIVINE AYURVEDIC HERITAGE P.LTD.,,,
DIVINE RETREAT CENTRE CHARITABLE SOCIETY,,,
DIXCY TEXTILES P.LTD.,,,
DIYA ENTERPRISES,,,
DOLIANDER EXPORTS,,,
DOLLAR INDUSTRIES LTD.,,,
DOLPHIN EXIM,,,
DOLPHIN WIRES PVT LTD.,,,
DOTS MARKETING,,,
DURA IMPEX,,,
DURO COMPOUNDS,,,
DURO PACK INDUSTRIES,,,
DUROFLEX EXPORTS (P) LTD.,,,
DUTCH  PLANTIN COIR INDIA P.LTD.,,,
DUTY FREE DISTRIBUTION SERVICES P.LTD.,,,
DYNAMIC DRILLING COMPANY P.LTD.,,,
DYNAMIC ENGINEERING,,,
DYNAMIC ORTHOPEADICS P. LTD.,,,
E.M. FASHION WEAR,,,
EAGLE EYE INC.,,,
EAPEN JOSEPH & CO.,,,
EAST COAST CLOTHING CO.P.LTD.,,,
EAST WEST COIR EXPORTS,,,
EASTEA CHAI P.LTD.,,,
EASTERN CLOTHING CO.,,,
EASTERN CONDIMENTS P.LTD.,,,
EASTERN TREADS LTD.,,,
EASTMAN EXPORTS GLOBAL CLOTHING  ,,,
EASTMAN EXPORTS GLOBAL CLOTHING,,,
EASTMAN GLOBAL CLOTHING P.LTD.,,,
EASY TECH CNC MACHINERY MNFG.,,,
EBENEZER PRESS P.LTD.,,,
EBENEZER PRINTPACK PRIVATE LIMITED,,,
ECO RUBBER,,,
ECO WARE,,,
ECOM GILL COFFEE TRADING P.LTD.,,,
ECONNECTIIVITY INDIA P.LTD.,,,
ECONOMIC FOOD SOLUTIONS P.LTD.,,,
ECOSOL,,,
ECOWOOD EXPORTS P. LTD.,,,
ECOWOOD LTD.,,,
EDEN ESTATE,,,
EDEN EXPORTS,,,
EL TE MARINE PRODUCTS,,,
ELECTRIC & ELECTRONIC EQUIPMENTS,,,
ELECTRO MEC,,,
ELECTRONIC CONTROLS&DISCHARGE SYSTEMS P.,,,
ELEMENTS HOMESTEAD PRODUCTS P.LTD.,,,
ELGI ELECTRIC AND INDS. LTD.,,,
ELGI EQUIPMENTS LTD.,,,
ELGI RUBBER CO.LTD.,,,
ELITE CLOTHING CO.,,,
ELITE ENERPRISES,,,
ELITE GREEN P.LTD.,,,
ELLENS CLOTHING,,,
EMBALLAGE,,,
EMBARK IMPEX,,,
EMCEES,,,
EMIR EXPORTS,,,
EMIRATES FOODS,,,
EMKAY EXPORTS,,,
EMKE FOOT CARE PRODUCTS,,,
EMME EXPORTERS,,,
EMPIRE CLOTHING,,,
ENBEE EXIM,,,
ENCILS TEA,,,
ENGINEERING EXPORTS,,,
ENGLISH INDIAN CLAYS LTD.,,,
ERBATECH MACHINERY P.LTD.,,,
ESKAY ENGINEERING,,,
ESPA WATER SYSTEMS P.LTD.,,,
ESQUIRE MULTIPLAST PRIVATE LTD,,,
ESS KAY INTERNATIONAL,,,
ESSAR PROJECTS,,,
ESSENSIA EXIMPT,,,
ESSENTIAL APPAREL,,,
ESSKAY HOME COLLECTIONS,,,
ESSKEY KNIT INTERNATIONAL,,,
ESTEEM SERVICES,,,
ESWARAN BROTHERS INDIA PVT LTD,,,
EURO IMPEX,,,
EURO INDIA INTERNATIONAL,,,
EURO LEDER,,,
EUROPIAN EXPORTS,,,
EVEREST DISTRIBUTORS,,,
EVEREST INDUSTRIES LTD.,,,
EVERGREEN FOODS,,,
EVERGREEN IMPEX,,,
EVERSHINE IMPEX,,,
EVERY WEAR EXPORTS,,,
EVOLVE APPARELS,,,
EXCEL FAB,,,
EXCEL GENERAL TRADING COMPANY,,,
EXCEL INDUSTRIES LTD.,,,
EXCELLENT CASHEW CO.,,,
EXEL SOURCING,,,
EXEL TRADE LINKS,,,
EXIM KNITS (P)LTD.,,,
EXIM TRADE,,,
EXLO ENGINEERING,,,
EXOTIC AGRO P.LTD.,,,
EXTRA WEAVE,,,
EXTREME FASHION ,,,
EZAMVELO TRADING,,,
FABHA EXIM,,,
FAIR EXPORTS INDIA P.LTD.,,,
FAIR INTERNATIONAL,,,
FAIR N FLAIR,,,
FAIR PHARMA,,,
FAIR TRADE INDIA,,,
FALCON FOOD PRODUCTS,,,
FALCON GLOBAL IMPEX,,,
FAMILY PLASTICS&THERMOWARE,,,
FANCY DISTRIBUTORS,,,
FARIDA SHOES LTD.,,,
FARM GOLD EXPORTERS & IMPORTERS,,,
FARM TECH,,,
FARMCO IMPEX,,,
FASHION BLOSSAM,,,
FASHION FABRIC,,,
FASHION FABS,,,
FASHION GATE,,,
FASHION KNITS,,,
FASHION STYLE,,,
FATHIMA CASHEW CO.,,,
FATHIMA TRADERS (P) LTD.,,,
FAVOURITE READYMADE GARMENTS,,,
FENA P.LTD.,,,
FERRARI SHOES(INDIA) P.LTD.,,,
FIBRE FAMILY,,,
FICUS TADING COMPANY,,,
FINE FAIR EXPORTS INDIA P. LTD.,,,
FINE FIT SEAT COVERS &ACCESSORIES,,,
FINE FOOD INDUSTRIES,,,
FINE FOOD PRODUCTS P.LTD.,,,
FIPRER,,,
FIRST STEPS BABY WEAR P.LTD.,,,
FITCO INDIA,,,
FITNESS CAR SEAT COVERS&ACCESSORIES,,,
FITNESS EXPORTS,,,
FIVE STAR TECHNICAL ENGNEERING WORKS,,,
FLOOR DECOR,,,
FLOOR GARDENS,,,
FLOOR MATE RUBBER PRODUCTS P.LTD.,,,
FLOORATEX RUBBER & PLASTICS P.LTD.,,,
FLOORSTYLE,,,
FLOORTEX,,,
FLOWSERVE INDIA CONTROLS P.LTD,,,
FLOWTECH HYDRAULIC,,,
FOABS ENTERPRISE P LTD,,,
FOOD PLUS CASHEW & SPICES,,,
FOODS  IMPEX,,,
FOODS AND INNS LTD.,,,
FORESHORE AUTOMATION,,,
FORMOSA INTERNATIONAL,,,
FORSTRIDGS,,,
FORTUNA IMPEX,,,
FORTUNE ELASTOMERS P.LTD.,,,
FOUR MANS EXPORT & IMPORT,,,
FRANCIS KOTTACKAL EXIM(P)LTD.,,,
FREEZE ENGINEERING INDUSTRIES P.LTD.,,,
FREEZE EXIM,,,
FRESH AGRI EXPORTS,,,
FRIENDS POLYPLAST,,,
FRONTIER KNITTERS,,,
FRONTLINE EXPORTS P. LTD.,,,
FROSTRIDGES,,,
FRUITION NATURAL EXTRACT P.LTD.,,,
FUTURE PLAST,,,
FUZAILSHOES,,,
G.EXPORTS,,,
G.G. FASHION,,,
G.G.R. EXPORTS,,,
G.G.R.EXPORTS,,,
G.H.EXPORT HOUSE,,,
G.K.ELECTRIC INDUSTRIES,,,
G.R.K. & COMPANY,,,
G.T. GARMENTS,,,
G.T.N. TEXTILES LTD.,,,
G.T.N.ENTERPRISES LTD.,,,
G.V.R. EXPORTS,,,
GAIETY,,,
GAINUP INDUSTRIES P.LTD.,,,
GAJANAN WORLD TRADE INDIA P.LTD.,,,
GANAPATHY TEXTILES,,,
GARDEN CITY AGRO EXPORTS P.LTD.,,,
GARDEN CITY FASHION P. LTD.,,,
GARMENTOR,,,
GATEWAY INTERNATIONAL,,,
GAUTHAM KNITS (INDIA),,,
GAYATHRI EXPORTS,,,
GAYATHRI RICE MILLS,,,
GECO COIR PRODUCTS P.LTD.,,,
GEE KAY FLUX,,,
GEETHAM AGENCIES,,,
GEM EQUIPMENTS,,,
"GEMCO RUBBER P,LTD.",,,
GEMWOOD,,,
GENERAL COMMODITIES LTD.,,,
GENERAL HARDWOODS CO.,,,
GENERAL TEXTILES INDUSTRIES,,,
GENTLE AYURVEDICS,,,
GEO AQUATIC PRODUCTS(P)LTD.,,,
GEO COIR PRODUCTS,,,
GEORGE & SONS,,,
GEORGE MATHEW & SONS,,,
GEOS HANDICRAFTS,,,
GESCHMACK FOOD INGREDIENT SOLUTION,,,
GILGAL CASHEW EXPORTS,,,
GIRIYAS INDUSTRIES,,,
GIRNAR FOOD & BEVERAGES P.LTD.,,,
GL EXPORTERS P.LTD.,,,
GLASS GALLERIA,,,
GLASS TECH COMPONENTS,,,
GLASSEX  (INDIA)  P.LTD.,,,
GLENROCK POLYMERS P.LTD.,,,
GLOBAL  PAPER LINK,,,
GLOBAL ASSOCIATES,,,
GLOBAL BUSINESS CONNECTION,,,
GLOBAL EXPORTS,,,
GLOBAL EXPORTS & IMPORTS,,,
GLOBAL FOODS LTD.,,,
GLOBAL FRESH FOOD EXPORTERS,,,
GLOBAL FROZEN FOODS P.LTD.,,,
GLOBAL GREEN CO. LTD.,,,
GLOBAL IMPEX,,,
GLOBAL MARINE INTERNATIONAL,,,
GLOBAL MARKETING CORPORATION,,,
GLOBAL TEXTILES ALLIANCE(I) P.LTD.,,,
GLOBALWAVE TECHNOLOGIES P.LTD.,,,
GLOBE ENTERPRISES,,,
GLOBE TRADING IMPEX,,,
GO FASHION(I)P.LTD.,,,
GOC INTERNATIONAL,,,
GODFREY PHILLIPS INDIA LTD,,,
GODWIN ENGINEERING,,,
GOKALDAS EXPORTS,,,
GOKUL KNIT FASHION,,,
GOLDEN ESTUARY TRADING P.LTD.,,,
GOLDEN GARMENTS,,,
GOLDEN HARVEST,,,
GOLDEN MARKETING,,,
GOLDEN TEA MANUFACTURES,,,
GOLDEN VANTAGE FARMERS INDUSTRIES,,,
GOLDIA EXPORTS,,,
GOMALA TEX,,,
GOMMA WOOD PRODUCTS,,,
GOOD COIR MATS & MATTING CO.,,,
GOOD MORNING COIR MILLS,,,
GOOD MORNING EXPORTS,,,
GOODWAY KNITS,,,
GOODWELL ENGINEERING PRODUCTS P.LTD.,,,
GOODWILL COIR MFG. CO.,,,
GOPAL REFINERIES&OIL MILLS,,,
GOR MEDICAL GAS EQUIPMENTS P.LTD.,,,
GOUTHAM KNIT GARMENTS,,,
GRACE INDUSTRIES,,,
GRAND INTERNATIONAL EXPORTERS,,,
GRANDWELL SPORTING GOODS (P).LTD.,,,
GREAT LINK IMPEX (P) LTD.,,,
GREATE INDIA EXPORTS,,,
GREATER INDIA ENTERPRISES,,,
GREEN FEAST IMPEX,,,
GREEN FRESH,,,
GREEN LEAVES & MACHINES P.LTD.,,,
GREENPLY INDUSTRIES LTD.,,,
GREENS INTERNATIONAL,,,
GREENWAY CLOTHING,,,
GREENWAY IMPEX,,,
GREENWAY TRADING CORPN.,,,
GRIPPO ELASTOMERS,,,
GROVE LTD,,,
GROVER VINEYARDS LTD.,,,
GUARDIAN CONTROLS LTD.,,,
GULF INDIA EXPORT CO.,,,
GULF MALABAR EXPORTERS,,,
GUNBOW TRADING CO.,,,
GUPTA TRADING CO.,,,
GUS CLOTHING CO.,,,
GYRO SPORTS EXPERTS,,,
H.T. FOODS P.LTD.,,,
HAJEE P.V.MOHAMMED BRARAMY SONS,,,
HALMAR INDUSTRIES,,,
HAMPI ECO SOLUTIONS P;LTD.,,,
HAMZA KOYA & CO.,,,
HANKOOK LATEX P. LTD.,,,
HANSA  INTERNATIONAL,,,
HAPPY FEET,,,
HAPPY SOAP MANUFACTURING,,,
HARIDAS NANJI  &  SONS,,,
HARISH COCONUT PRODUCTS,,,
HARLEQUIN GRANITE,,,
HARLEY CARMBEL (INDIA) P. LTD.,,,
HARRISONS MALAYALAM LTD.,,,
HARSHA KNIT WEARS,,,
HATHIBHAI BULAKHIDAS P. LTD.,,,
HATSUN AGRO PRODUCTS P. LTD.,,,
HEDGE MARKETING COMPANY,,,
HEIPLOEG SEAFOOD INDIA P.LTD.,,,
HEMANAND SPICES,,,
HERBAL SUPPLEMENTS P.LTD.,,,
HERITAGE ARTS,,,
HERITAGE SQUARE,,,
HERO FASHIONS,,,
HI TECH SYNDICATE,,,
HI-BUILD COATING P.LTD.,,,
HI-CARE POLYMERS P.LTD.,,,
HI-TECH FASHIONS,,,
HI-TECH PRE TREADS P.LTD.,,,
HIATECH SYSTEMS,,,
HIGHGANGE EXPORTERS,,,
HIGHMILLER TRADES,,,
HIGHRANGE EXPORTERS,,,
HIGHRANGE RUBBER & COIR PRODUCTS,,,
HIKAL LTD,,,
HILL APPARELS  EXPORTS,,,
HILL GOLD TRADING CO.,,,
HILLWOOD FURNITURE PVT LTD,,,
HIMALAYA DRUG CO.,,,
HIMILER POLYMERS INDIA P.LTD.,,,
HINDALCO INDUSTRIES LTD.,,,
HINDUSTAN AERONATUTICS LTD.,,,
HINDUSTAN CLOTHING & MARKETING LTD.,,,
HINDUSTAN FURNACES,,,
HINDUSTAN INSECTICIDES LTD.,,,
HJI EXPORTS,,,
HLL LIFECARE LTD.,,,
HMS FASHIONS,,,
HMT (INTERNATIONAL) LTD.,,,
HOME 2 HOME,,,
HOME FURNISHINGS,,,
HOMEY ENTERPRISES,,,
HOPPE INTERNATIONAL,,,
HORTICULTURE SUPPLIES AND SERVICES P.LTD.,,,
HSB INTERNATIONAL,,,
HY WALK PU FOOTWEAR,,,
HYCOUNT PLASTICS,,,
HYDRO PLANTERS,,,
HYTEC EXPORTS,,,
HYTEC INDUSTRIAL EQUIPMENT,,,
I.G.INTERNATIONAL,,,
I.P.TEA & COMMODITIES ,,,
I.T.C. LTD.,,,
ICE WEAR CREATION,,,
IDFS TRADINGS P.LTD.,,,
IFTRA FOODS INDIA P.LTD.,,,
IMPERIAL FOODS & EXPORTS,,,
IMPEX P.LTD.,,,
IMPRESS EXPORTERS,,,
INCOM TRADING(I)P.LTD.,,,
INDAFRO IMPEX,,,
INDEU CLOTHING,,,
INDEX KNIT AND WAVE P.LTD.,,,
INDI TRADERS,,,
INDIA SEA FOODS (REGD.),,,
INDIAN COIR COMPANY,,,
INDIAN COMMERCIAL COMPANY,,,
INDIAN INDUSTRIES LTD.,,,
INDIAN ORGANIC FARMERS PRODUCE CO.LTD.,,,
INDIAN PRODUCTS LTD.,,,
INDIAN RARE EARTHS LTD.,,,
INDIAN TEXTILES,,,
INDIAN TREASURES,,,
INDIAN VALLEY FOODS,,,
INDIANA V IMPEX,,,
INDICOCO EXPORTS,,,
INDO GERMAN CARBONS LTD.,,,
INDO SHELL MOULD LTD.,,,
INDSIL ENERGY&ELECTRO CHEMICAL P.LTD.,,,
INDSIL HYDRO POWER & MAGANESE LTD.,,,
INDUS CONSUMER PRODUCTS LTD.,,,
INDUS LIFE SCIENCE,,,
INDUS PLYWOOD,,,
INDUS VEGPRO P.LTD.,,,
INDUSTRIAL ENGINEERING CORPN.,,,
INIYAN CREATIONS,,,
INNOVATIVE FOODS LTD.,,,
INSTAPURE IMPEX INDIA P.LTD.,,,
INSTRUMENTATION LTD.,,,
INTEGRATED COIRS INDIA P.LTD.,,,
INTEGRATED RESOURCES,,,
INTER CON EXPORTS,,,
INTERGROW FOODS&BEVERAGES,,,
INTERNATIONAL CARPET CONSORTIUM,,,
INTERNATIONAL FITNESS SYSTEM,,,
INTERNATIONAL FLAVOURS&FRAGRANCES,,,
INTERNATIONAL FREEZE FISH EXPORTS,,,
INTERNATIONAL TIMBER TRADERS,,,
INTERNATIONAL TRADING&MARKETING,,,
INTERSEAS,,,
ISHANS BUSINESS SOLUTIONS PRIVATE LIMITED ,,,
ISIDORE ART PALACE,,,
ISITA DRUGS & INDUSTRIES,,,
ISMAIL  ENTERPRISES,,,
ITA-KO DELICACIES AND EXPORTS,,,
ITAL INDIA PACK PLUS,,,
ITALIAN PLANET,,,
IVY MULTI PUMPS,,,
IYER EXIM ALIENDA,,,
J & J EXPORTERS,,,
J & J KALAN PHARMACY P.LTD.,,,
J&M FASHIONS,,,
J&T EXPORTS,,,
J- WIN FASHION,,,
J.A.APPARELS,,,
J.J.INDUSTRIES & EXPORTS,,,
J.J.PLYWOOD INDUSTRIES,,,
J.K. EXPORTS,,,
J.K.GROUP OF INDUSTRIES,,,
J.M.SOLUTIONS,,,
J.S.METALS AND CRAFTS,,,
JACKSONS VENEERS & PANELS P. LTD.,,,
JACKSONS VENEERS LTD.,,,
JAGUAR PAW EXPORTS,,,
JAI RAAM EXPORTS,,,
JAI SREEM EXPORTS,,,
JAMSONS TRADING CO.,,,
JANAMI ENTERPRISES,,,
JANATHA AQUA PRODUCTS P.LTD.,,,
JANATICS INDIA P.L.TD.,,,
JANSON EXPORTS,,,
JANSONS INDUSTRIES,,,
JAPAN INTERNATIONAL,,,
JAYA VALLI FASHIONS,,,
JAYABHARATHAM ARYA VAIDYASALA,,,
JAYACHANDRAN INDUSTRIES PVT LTD,,,
JAYALAKSHMI CASHEW EXPORTS,,,
JAYALAKSHMI EXPORTS,,,
JAYALAKSHMI IRON TRADERS,,,
JAYALAXMI CASHEW INDUSTRIES,,,
JAYASURYA IMPEX,,,
JAYSHREE TEA & INDUSTRIES LTD.,,,
JAYSON APPAREL SOURCING,,,
JEANS KNIT PVT LTD,,,
JEBAL GARMENTS,,,
JEE HEET AGRO FOODS,,,
JEENA & CO.,,,
JESSIE ENTERPRISES,,,
JINEY PUBLICATION,,,
JINNAH EXPORTS,,,
JIS INTERNATIONAL EXPORTS(P)LTD.,,,
JOHN MATHAI,,,
JOHN'S UMBRELLA MART,,,
JOHNS CASHEW COMPANY,,,
JOHNS N FIBRES,,,
JOHNSON ,,,
JOHNSON ENGINEERING,,,
JOLLY FLEX,,,
JOS MARINE TECNICAL,,,
JOS THOMAS & COMPANY,,,
JOSCO BROS,,,
JOSCO RUBBER(PONDY)P.LTD.,,,
JOSEPH A THAYYIL,,,
JOSHEVA MARKETING,,,
JOY ALUKKAS RETAIL P.LTD.,,,
JOY ALUKKAS TRADERS (INDIA) P.LTD.,,,
JUMBO FOODS,,,
JUMBO GLOBAL LTD.,,,
JUNCTION FABRIC APPARELS,,,
JUPITER AROMA P. LTD.,,,
JUPITER KNITTING CO.,,,
JUST AND FAST ENTERPRISES,,,
JUST CO,,,
JUTE FOODS  INDIA,,,
JYOTHIS CASHEWS,,,
K&T AGRO MILLS P.LTD.,,,
K.A.C.RUBBERS,,,
K.B.EXPORTS & IMPORT,,,
K.G.I.CLOTHING P.LTD.,,,
K.G.T.IMPEX,,,
K.KUMAR INTERNATIONAL,,,
K.M.R.EXPORTING&IMPORTING,,,
K.M.S.UNIVERSAL EXPORTS P.LTD.,,,
K.MOHAN & CO.(EXPORTS) P.LTD.,,,
K.P.NAMBOODIRI,,,
K.P.PATHROSE VAIDYANS,,,
K.P.R. MILL LTD.,,,
K.P.R.NAIR,,,
K.P.RUBBERS,,,
K.S.B.GROUP,,,
K.S.CO.F.FOR FISHERIES DEVPT.LTD.,,,
K.S.GANGADHARA IYER AND CO.,,,
K.SUBRAYA ANANTHA KAMATH & SONS,,,
K.T. GARMENTS,,,
K.V.M.S.IMPORTS&EXPORTS,,,
KABADI SHANKARSA & SONS,,,
KADAVIL ELECTRO MECHANICAL INDUSTRIES,,,
KADHIR EXPORTS,,,
KAIRALI,,,
KAIRALI INTERNATIONAL FURNITURE,,,
KAJAH TEA COMPANY P.LTD.,,,
KALAN GEO HERBALS,,,
KALLUVILAYIL EXPORTS,,,
KALPA INTERNATIONAL,,,
KALYAN PRODUCTS,,,
KAM COIR,,,
KAMRICH EXPORTS,,,
KANAM LATEX INDUS. P. LTD.,,,
KANCHANA FOOD PRODUCTS,,,
KANCOR INGREDIENTS LTD.,,,
KANCOR NATURAL ISOLATES LTD.,,,
KANDHAN KNITS,,,
KANNOLY EXPORTS,,,
KANRAD HOUSEWARE(P)LTD.,,,
KANTHASWAMY & CO.,,,
KANTI FLOOR FURNISHERS,,,
KARE AYURVEDIC REMEDIES,,,
KARNATAKA AGRO CHEMICALS,,,
KARPAGHAM TEX,,,
KARUKUNNATHU EXPORTS,,,
KASS EXPORTERS,,,
KASUVAKADA,,,
KATTOLLY AYURVEDIC&RESEARCH,,,
KATTUVILA TRADING PVT LTD,,,
KAULA AGRO FOODS P.LTD.,,,
KAVERI YARNS&FABRICS LTD.,,,
KAVIL EXPORTERS,,,
KAWISNA GARMENTS,,,
KAY GEE EXPORTERS,,,
KAY JAY EXPORTS,,,
KAY JAY SHARP TRENDY,,,
KAY KAY FOODS,,,
KAYKAY`S EXPORTS,,,
KCM APPLIANCES P.LTD.,,,
KELACHANDRA EXPORTS AND TRADES,,,
KELTECH ENERGIES LTD.,,,
KELY EXPORTS & IMPORTS,,,
KENZ EXPORTERS,,,
KERA MATWALLAH P.LTD.,,,
KERA NATURAL FLOORINGS,,,
KERAFIBERTEX INTERNATIONAL P.LTD.,,,
KERALA AYURVEDA PHARMACY LTD.,,,
KERALA FURNITURE MART,,,
KESHAV EXPORTS  INC.,,,
KEVIN GARMENTS,,,
KEVINJO PHARMACEUTICALS P.LTD.,,,
KHALED ENTERPRISES,,,
KHALID ,,,
KHANSA EXPORTS,,,
KHEMCHAND SONS,,,
KHUSHI INTERNATIONAL,,,
KHUSHI TRADING CO.LLC,,,
KIK PLASTICS P.LTD.,,,
KINGS MARINE EXPORTS,,,
KINGS SEAFOODS,,,
KINGS TRADINGS,,,
KINSLEY KNITT INTERNATIONAL,,,
KISHORE SPICES CO.,,,
KITEX CHILDREN WEAR LTD.,,,
KITEX GARMENTS LTD.,,,
KITEX LTD.,,,
KIVI SANSHO PACKAGING P.LTD.,,,
KNIT GALLERY,,,
KNIT GARMENTS,,,
KNIT INDIA INC,,,
KNIT VEL EXPORTS,,,
KNITMAN EXPORTS,,,
KNITS WAY,,,
KNITWAY KNITTERS,,,
KNITWIN INTERNATIONAL,,,
KODIYIL EXPORTS,,,
KOLAMBIL TRADING,,,
KOLENGADAN INDUSTRIES,,,
KOLIYAT SPECIALITY CHEMICALS,,,
KOLLANUR INDUSTRIES,,,
KOMA INDIA P.LTD.,,,
KOMERIC SERVICES,,,
KONKAN SPECIALITY POLY PRODUCTS P. LTD.,,,
KONNULLY EXPORTS & TRADES,,,
KORAL INTERNATIONAL,,,
KOSO FLUID CONTROLS P.LTD.,,,
KPL OIL MILLS PVT LTD.,,,
KPM EQUIPMENTS P.LTD.,,,
KRAFTWORK SOLAR P.LTD.,,,
KRILLO GARMENTS,,,
KRISHNA & CO.,,,
KRISHNAVENI,,,
KRISHNAVENI CARBON PRODUCTS (P)LTD.,,,
KRISHVANTH EXPORTS,,,
KRITIKA APPARELS,,,
KT & AHMU HAIR CARE PRODUCTS,,,
KUMAR RETAIL P.LTD.,,,
KUMBUKATTU CASHEWS,,,
KUTTIYAL TRADING,,,
L & P RUBBER PRODUCTS,,,
L&S GARMENTS,,,
L.G. BALAKRISHNAN & BROS.,,,
L.S. FASHION,,,
LABONY COLLECTIONS,,,
LAGUNA CLOTHING,,,
LAKSHMAN & CO.,,,
LAKSHMI APPARELS AND WOVENS LTD.,,,
LAKSHMI KNIT WEAR,,,
LAKSHMI MACHINE WORKS LTD.,,,
LALA AGRO TROPIC P.LTD.,,,
LALITH HANDLOOMS,,,
LAND MARK EXPORTERS,,,
LANDED FRESH INTERNATIONAL,,,
LARA KNITWEAR,,,
LARS MEDICARE,,,
LARSEN & TOUBRO LIMITED,,,
LASOMO IMPORT & EXPORT,,,
LAVA ENGINEERING CO.,,,
LAXMI CASTINGS,,,
LE SHARK (INDIA),,,
LEADER KNITTING CO.,,,
LEARNING TIME,,,
LEAYAN GLOBAL P.LTD.,,,
LEE X  ENTERPRISES,,,
LEE4 GROUP,,,
LEO TRADING & LOGISTCS,,,
LEOTEX,,,
LIBAS ENTERPRISES,,,
LILLY INTERNATIOAL EXPORTS & IMORTS,,,
LISO COIR TEX,,,
LISONA INC.,,,
LIVING TRENDS,,,
LIZ WOOD PRODUCTS,,,
LLOYDS EXPORTS,,,
LMJ INTERNATIONAL LTD.,,,
LOAD STAR SOLID TYRES,,,
LOBIN INDUSTRIES,,,
LOCUS EXPORTS&IMPORT,,,
LODE STAR IMPEX,,,
LOOCUST INCORPORATION,,,
LOOM CRAFT,,,
LOTTE INDIA CORPORATION,,,
LOTUS CLOTHINGS P.LTD.,,,
LOTUS IMPORTS & EXPORTS,,,
LOTUS INTERNATIONAL EXPORTS,,,
LOUIS & CO.,,,
"LOUIS DREYFUS COMMODITIES INDIA P,LTD.",,,
LOURDE MATHA CASHEW INDUSTRIES,,,
LOYAL TEXTILE MILLS LTD.,,,
LUCID AGRO P.LTD.,,,
LUKE EXPORTS,,,
LULU EXPORTS,,,
LUNAR RUBBER (P) LTD.,,,
LUX INDUSTRIES LTD.,,,
M.A. POTATO TRADING CO.,,,
M.ABDUL REHUMAN KUNJU,,,
M.H.CARPET,,,
M.J.ASSOCIATES,,,
M.J.ENTERPRISES,,,
M.J.GROUP,,,
M.K.ABDUL RASHEED,,,
M.K.M.KNIT CREATIONS,,,
M.K.M.TOYS,,,
M.M.ABDUL HAMEED & SONS,,,
M.O.JOHN & SONS (EXPORTS),,,
M.P.COIR EXPORTS,,,
M.R.A.BAKERY,,,
M.S. INTERNATIONAL,,,
M.S.&SONS TRADERS&EXPORTERS,,,
M.S.E.CREATION P.LTD.,,,
M.S.KNITING MILLS,,,
M.S.S. RUBBER AND RECLAIMS P.LTD.,,,
M3 APPARELS INDIA P.LTD.,,,
MABS BUSINESS CORPORATION,,,
MACLINES TRADING INDIA P.LTD.,,,
MACTECH KNITFABS,,,
MADHAVA EXPORTS,,,
MADHAVAN ECO CRAFT,,,
MADHU JAYANTI INTERNATIONAL LTD.,,,
MADURA COATS LTD.,,,
MAF CLOTHING P.LTD.,,,
MAFSELL ENTERPRISES,,,
MAHA EXPORTS,,,
MAHALAKSHMI EXIM,,,
MAHARAJ INTERNATIONAL,,,
MAHARAJA PALANISAMY,,,
MAHARSHI HERBALS,,,
MAHEM ENGINEERING P.LTD.,,,
MAHENDRA PUMPS PVT LTD,,,
MAINAD ALLOY CASTINGS,,,
MAJESTIC COMMODITIES P.LTD.,,,
MAK INTERNATIONAL,,,
MALA SONS,,,
MALABAR AGRI EXPO,,,
MALABAR EXPORTS,,,
MALABAR EXTRUSION P.LTD.,,,
MALABAR FOOD STUFF CO.,,,
MALABAR SPICES,,,
MALABAR TEXTILES,,,
MALABAR TIMBER CO.,,,
MALABAR TRADERS,,,
MALABAR TRADING COMPANY.,,,
MALABAR WHITE WOOD,,,
MALABAR WOOD PANELS,,,
MALANADU TEA TRADERS,,,
MALAVIKA EXPORTS,,,
MALAYALA MANORAMA CO.LTD.,,,
MALAYALAM EXPORT CORPN.,,,
MALAYALAM EXPORT ENTERPRISES,,,
MALNAD ALLOY CASTING P.LTD.,,,
MALOOS TRADING,,,
MANGALA MARINE EXIM INDIA P.LTD.,,,
MANGALATH CASHEW,,,
MANOHAR BOTANICAL EXTRACT P.LTD.,,,
MARARI COIR RUB,,,
MARE FOOD PRODUCTS INDIA P.LTD.,,,
MAREENA CASHEW EXPORTS,,,
MARIAM PAPER CONTAINERS,,,
MARICO LTD.,,,
MARIKAR EXPORTS,,,
MARINE CHEMICALS,,,
MARINE FINS,,,
MARINE HARVEST (INDIA),,,
MARK TRADERS,,,
MARKSMAN,,,
MARLOUIS BOOK CENTRE,,,
MARS GARMENTS,,,
MARUTHI GARMENT CREATIONS P.LTD.,,,
MARVEL ENTERPRISES,,,
MARWA SEAFOODS,,,
MAS ENTERPRISES LTD.,,,
MASCOT GARMENTS,,,
MASCOT INDUSTRIES,,,
MASCOT MATS,,,
MASH INTERNATIONAL,,,
MASS EXPORTS,,,
MASSWIN APPARELS,,,
MASTER CRAFTSMAN INDIA  P.LTD.,,,
MAT INDIA TRADE LINKS,,,
MATEX,,,
MATHA AMRITHANANDAMAYI MISSION TRUST,,,
MATHA FOODS,,,
MATHA TYRE TOOLS EQUIPMENTS,,,
MATHARI EXPORTERS,,,
MATHESON BOSANQUET ENTERPRISES LTD.,,,
MATHEWSONS EXPORTS & IMPORTS,,,
MATHRUBHUMI PRINTING&PUBLICATIONS,,,
MAX ENGINEERING,,,
MAYITHRA TRADING CORPN.,,,
MBS PUMPS P.LTD.,,,
MCWANE SERVICES P.LTD.,,,
MEBRAM FOODS & SPICES,,,
MECHAMATRIX COMPONENTS INDIA LTD.,,,
MECHANICAL ASSEMBLY SYSTEMS (I) P. LTD.,,,
MECHELEC,,,
MEDILEAVES AYURVEDA P.LTD.,,,
MEDISCAN,,,
MEENA TRADING COMPANY,,,
MEERA GLOBAL IMPEX,,,
MEETHAL TRADERS,,,
MEGA APPAREL INDIA P.LTD.,,,
MEGAMILES BEARING,,,
MEHABOOB EXPORTS,,,
MENMA FOODS,,,
MERBAN FOODS&SPICES,,,
MERBAN SPICES P.LTD.,,,
MERCHEM LTD.,,,
MERCURY EXIMS,,,
MERHABA INTERNATIONAL,,,
MERINO GARMENTS,,,
MERIT FASHION,,,
MERIT INDUSTRIES LTD.,,,
MERIT SYNDICATE,,,
MERMAID DIGITAL POLYMERS P.LTD.,,,
MERRAN SPICES,,,
METAL POWDER CO.LTD.,,,
METRICWAYS,,,
METRO EXPORTERS LTD.,,,
METRO EXPORTS,,,
METRO FASHIONS (I) P.LTD.,,,
METROMOT,,,
MEXICAN EXPORTS,,,
MICRON SYSTEM & ENGINEERS,,,
MIDAS POLYMER COMPOUND P.LTD.,,,
MIDAS PRECURED TREADS(P)LTD.,,,
MIDAS RUBBER (P) LTD.,,,
MIDDLE EAST EXPORTS CO.,,,
MIDDLE EAST RUBBER & ENGINEERING,,,
MIDEAST EXPORTS,,,
MIDHUN VIJAYAN,,,
MIDWAY,,,
MIL CONTROLS LTD.,,,
MILKY MIST DIARY FOOD P.LTD.,,,
MILLENANIUM RUBBER TECHNOLOGIES P.LTD.,,,
MIRACLE RUBBER P.LTD.,,,
MIRACLE TEA&SPICES COMPANY,,,
MIRAZ MARINE FOODS,,,
MITRA SOLUTION,,,
MITTAL CLOTHING CO.,,,
MIXKRAFT AV TECHNOLGIES PVT LTD,,,
MNCROWN TEX INDIA,,,
MOBILE CARE ELECTRONICS,,,
MODERN FOOD INDUSTRIES,,,
MODERN HERBS,,,
MODI AGENCIES,,,
MOHAMMED,,,
MOHAMMED IBRAHIM EXPORTERS,,,
MOLEX (INDIA) LTD.,,,
MOLLAKKAS MERCANTILE,,,
MOLLY ENTERPRISES,,,
MONARCH INTERNATIONAL,,,
MONDELEZ INDIA FOODS,,,
MONSUN FOODS P.LTD.,,,
MOOLANS EXPORTS(I)P.LTD.,,,
MOTHER GARMENTS,,,
MOTHER SON SUMI,,,
MOUNT CARMEL CASHEW,,,
MOUNT MORIA CASHEW,,,
MPP TECHNOLOGIES P. LTD.,,,
"MR,WALKER FOOTCARE",,,
MRF LTD.,,,
MRIDA ENTERPRISES,,,
MSA SEA FOODS,,,
MSK CREATION,,,
MTEC ENGINEERING,,,
MUBARAK EXPORTS,,,
MUBARAK FRUITS,,,
MUKKA SEAFOD INDUSTRIES P.LTD.,,,
MULBERY ENGINNERING,,,
MULTI FLOOR EXPORTS,,,
MULTICARE,,,
MULTIPLEX ABRICARE P.LTD.,,,
MULTIPLEX BIO-TECH PVT LTD,,,
MUMTHAS CASHEW INDUSTRIES,,,
MUSHAL EXPORTERS & TRADERS,,,
MYFR EXPORTS&MARKETING,,,
MYQUEST INTERNATIONAL P.LTD.,,,
N.B.EXPORT,,,
N.M.K EXPORTS,,,
N.N.CASHEW EXPORTS,,,
N.R.G FOOD PVT LTD,,,
N.RANGARAO & SONS,,,
N.S.N.BIOTECH P.LTD.,,,
N3 EXPORTS,,,
NADAF TRADERS,,,
NADHEEM SPICES & INDUSTRIES ,,,
NAGAS FASHIONS,,,
NAGREEKA EXPORTS LTD.,,,
NAJEEM CASHEW INDUSTRIES,,,
NAMBIYATH TRADING CO,,,
NANDANA OVERSEAS,,,
NARANJI COIR INDUSTRIALS,,,
NARAYANA EXPORTS,,,
NARAYANA HRUDAYALAYA,,,
NARENDRA TEA CO.P.LTD.,,,
NARENDRAN SONS,,,
NARGO INDUSTRIES (P) LTD.,,,
NAS EXPORTS,,,
NAS FISHERIES P.LTD.,,,
NAT FIBRES,,,
NAT ORG SOLUTIONS,,,
NATIONAL EXPORTERS & IMPORTERS,,,
NATIONAL FITTINGS LTD.,,,
NATIONAL KHADI STORES,,,
NATIONAL TEXTILE CORPORATION LTD.,,,
NATIR EXPORTS,,,
NATURAL FLOOR COVERING P.LTD.,,,
NATURAL FLOORS,,,
NATURAL PRODUCTS EXPORT CORPN LTD.,,,
NATURAL WOOD & VENEERS P.LTD.,,,
NATURE ENTERPRISES,,,
NATURE PEARLS P.LTD.,,,
NAVAKERALAM FOOTWEAR,,,
NAVASAKTHI FASHIONS,,,
NAVIN GRANITE P.LTD.,,,
NAVIOS AUTOMATION,,,
NAVITAA EXPORTS,,,
NAXWIN GARMENTS,,,
NEDCOMMODITIES INDIA LTD.,,,
NEDUMBALLI TRADERS,,,
NEDUMPILLIL EXPORT & IMPORT,,,
NEEDLE INDUSTRIES (INDIA) LTD.,,,
NELLARA FOOD INDUSTRIES,,,
NENMANI AGRO MILLS P.LTD.,,,
NEROTH JOHN CHANDY & CO.,,,
NESTLE INDIA LTD.,,,
NESTORCOCHIN,,,
NETRACK ENCLOSURES PVT LTD.,,,
NETTOS EXPORTING & IMPORTING CO.,,,
NETWORK CLOTHING CO.P.LTD.,,,
NETWORK INDUSTRIES LTD.,,,
NEW CASTLE APPARELS,,,
NEW FORT CREATIONS,,,
NEW JERSEY CREATIONS,,,
NEW LEXICON TRADERS,,,
NEW TEA EXPORTS,,,
NEW TIMBER TRADERS,,,
NEW UDAYA PHARMACY & AYURVEDIC LAB,,,
NEWMAN EXPORTS,,,
NEXT GENERATION CLOTHING P.LTD.,,,
NEXUS FROZEN FRUITS CONTAINERS&FOODS P.LTD.,,,
NICE CHEMICALS P. LTD.,,,
NIHAS VALESTREAM EXPORTS,,,
NIKITHAA EXPORTS,,,
NILAMELS AND KAIMALS FOODS P.LTD.,,,
NIMA SPICES,,,
NINE BROCKERS,,,
NIPUMA INTERNATIONAL,,,
NIRTHOMS PANELS,,,
NISHAN TRADES & AGENCIES,,,
NISHANT EXPORT,,,
NISSY CORPORATIONS,,,
NITHIN KNIT WEAR,,,
NITTA GELATIN INDIA LTD.,,,
NOBLE CASHEW INDUSTRIES,,,
NOBLE CLOTHING,,,
NOBLE MOTORS INDIA P.LTD.,,,
NORATEL INDIA POWER COMPONENTS P.LTD.,,,
NORMANYOUNG ENG.PRODUCTS(P)LTD.,,,
NORTRANS EXIM P.LTD.,,,
NOVA ENGINEERING,,,
NOVELTY CLOTHING,,,
NOVEN FABRIC CO.,,,
NUOVAFILL & INFOTECH P. LTD.,,,
OCC APPARELS,,,
